IRIDIUM 119             
1 42959U 17061E   25100.84095772  .00000289  00000+0  95990-4 0  9998
2 42959  86.4030 205.8847 0002047  91.4673 268.6757 14.34218471392841
IRIDIUM 136             
1 42962U 17061H   25100.82827404  .00000431  00000+0  14692-3 0  9993
2 42962  86.4031 205.8961 0002001  90.7463 269.3963 14.34213766392863
IRIDIUM 125             
1 42964U 17061K   25100.82192925  .00000354  00000+0  11932-3 0  9996
2 42964  86.4036 206.0066 0001861  82.9440 277.1967 14.34218999392886
IRIDIUM 135             
1 43070U 17083A   25100.86582377 -.00000037  00000+0 -20330-4 0  9990
2 43070  86.3975 142.7590 0002417  96.8912 263.2558 14.34218775382186
IRIDIUM 138             
1 43071U 17083B   25101.10049997 -.00000059  00000+0 -28028-4 0  9991
2 43071  86.3965 142.3409 0002391  80.6040 279.5426 14.34218338382207
